ONEWEB-0153             
1 48044U 21025C   23316.89643919 -.00000068  00000+0 -22109-3 0  9996
2 48044  87.8982 148.7311 0001463  90.0420 270.0876 13.13469781129193
ONEWEB-0154             
1 48045U 21025D   23316.81814743 -.00000683  00000+0 -19061-2 0  9999
2 48045  87.8990 148.7599 0001399  84.8591 275.2698 13.13464150129148
ONEWEB-0116             
1 48046U 21025E   23316.93664218 -.00000117  00000+0 -35597-3 0  9998
2 48046  87.8985 148.7036 0001563  74.6289 285.5013 13.13471595129307
ONEWEB-0150             
1 48047U 21025F   23317.06149694  .00000367  00000+0  97131-3 0  9997
2 48047  87.8986 148.7050 0001604  90.6360 269.4953 13.13470067129216
ONEWEB-0107             
1 48048U 21025G   23317.06359068  .00000329  00000+0  86705-3 0  9999
2 48048  87.8986 148.7030 0001711  97.5582 262.5742 13.13472493129198
ONEWEB-0101             
1 48049U 21025H   23317.10379957 -.00000324  00000+0 -92195-3 0  9991
2 48049  87.8984 148.7028 0001419  90.0654 270.0638 13.13471542129177
ONEWEB-0113             
1 48050U 21025J   23316.92817204  .00000125  00000+0  30770-3 0  9992
2 48050  87.8928 148.7323 0001424  80.0754 280.0536 13.13467988129235
ONEWEB-0112             
1 48051U 21025K   23316.91547256  .00000341  00000+0  89941-3 0  9993
2 48051  87.8987 148.7303 0001606  85.9476 274.1836 13.13471529129240
